STARLINK-1747           
1 46569U 20070AP  22254.08152687  .00000867  00000+0  77132-4 0  9995
2 46569  53.0548 123.0458 0001497  66.4252 293.6895 15.06395120107222
STARLINK-1748           
1 46570U 20070AQ  22253.87138426  .00018045  00000+0  11294-2 0  9990
2 46570  53.0551 122.7779 0002144  60.7093 299.4112 15.09467494107504
STARLINK-1531           
1 46572U 20070AS  22253.85388947 -.00000116  00000+0  11080-4 0  9991
2 46572  53.0539 144.0528 0001470  72.5981 287.5169 15.06402162107204
STARLINK-1650           
1 46573U 20070AT  22253.83131786 -.00000028  00000+0  16988-4 0  9991
2 46573  53.0557 129.1585 0001532  65.6518 294.4631 15.06400739107412
STARLINK-1660           
1 46574U 20070AU  22253.81751570  .00000929  00000+0  81232-4 0  9992
2 46574  53.0543 129.2427 0001482  77.7511 282.3644 15.06402475107414
STARLINK-1675           
1 46575U 20070AV  22254.00597903  .00003473  00000+0  25194-3 0  9994
2 46575  53.0548 103.4005 0001845  63.7638 296.3541 15.06401352107799
STARLINK-1677           
1 46576U 20070AW  22253.81014461 -.00004614  00000+0 -29091-3 0  9996
2 46576  53.0539 129.2634 0001500  52.4073 307.7052 15.06413564107411
STARLINK-1682           
1 46577U 20070AX  22254.10501736  .00000196  00000+0  32059-4 0  9994
2 46577  53.0537 127.9357 0001343  79.0188 281.0952 15.06404853107452
STARLINK-1683           
1 46578U 20070AY  22253.82075464 -.00002284  00000+0 -13447-3 0  9998
2 46578  53.0540 114.2779 0001535  71.6791 288.4365 15.06396585107625
STARLINK-1705           
1 46579U 20070AZ  22254.09028228 -.00001033  00000+0 -50430-4 0  9990
2 46579  53.0555 128.0117 0001600  78.7703 281.3466 15.06407117107432
STARLINK-1708           
1 46580U 20070BA  22253.86912821  .00001552  00000+0  12310-3 0  9995
2 46580  53.0541 128.9989 0001496  84.5687 275.5473 15.06386515107424
STARLINK-1712           
1 46581U 20070BB  22253.83456944 -.00001989  00000+0 -11467-3 0  9990
2 46581  53.0521 124.1650 0001429  76.5484 283.5664 15.06391973107489
STARLINK-1728           
1 46582U 20070BC  22253.81982778  .00001136  00000+0  95156-4 0  9998
2 46582  53.0542 124.2333 0001356  92.2635 267.8509 15.06397273107486
STARLINK-1729           
1 46583U 20070BD  22253.86957939  .00002192  00000+0  16599-3 0  9991
2 46583  53.0536 144.0053 0001514  82.1730 277.9430 15.06396618107206
STARLINK-1732           
1 46584U 20070BE  22254.15524629 -.00001534  00000+0 -84147-4 0  9997
2 46584  53.0539 122.7240 0001534  74.6023 285.5136 15.06394261107226
STARLINK-1736           
1 46585U 20070BF  22253.84099868 -.00000153  00000+0  86624-5 0  9993
2 46585  53.0545 124.1224 0001680  75.5885 284.5290 15.06402015107485
STARLINK-1737           
1 46586U 20070BG  22253.83088350  .00000035  00000+0  21228-4 0  9993
2 46586  53.0545 124.1701 0001447  80.8701 279.2451 15.06398837107489
STARLINK-1746           
1 46588U 20070BJ  22253.81244919  .00000376  00000+0  44137-4 0  9990
2 46588  53.0542 124.2632 0001494  69.3968 290.7181 15.06401047107487
STARLINK-1749           
1 46589U 20070BK  22254.07046952 -.00002614  00000+0 -15667-3 0  9991
2 46589  53.0538 123.1050 0001392  96.9346 263.1801 15.06401267107520
STARLINK-1755           
1 46591U 20070BM  22253.86036810 -.00000556  00000+0 -18419-4 0  9994
2 46591  53.0538 124.0415 0001325  82.8526 277.2613 15.06395861106548
FLOCK 4V-18             
1 46597U 20061BG  22253.78354774  .00009960  00000+0  43622-3 0  9992
2 46597  97.3983 324.0434 0007018 176.5725 183.5560 15.22197919106800
FLOCK 4V-19             
1 46609U 20061BH  22253.74518585  .00012945  00000+0  56587-3 0  9995
2 46609  97.3861 323.3020 0003642 153.3516 206.7908 15.22210492106369
GAOFEN 13               
1 46610U 20071A   22253.91027275 -.00000384  00000+0  00000+0 0  9998
2 46610   0.2883 260.6005 0003433 274.7749 260.0583  1.00270598  7117
FLOCK 4V-20             
1 46612U 20061BJ  22253.74982461  .00006105  00000+0  27253-3 0  9996
2 46612  97.3970 323.8019 0006823 182.0558 178.0651 15.21709014105868
STARLINK-1715           
1 46671U 20073B   22253.29183579  .00002267  00000+0  17105-3 0  9997
2 46671  53.0550 216.8403 0001768  55.7828 304.3328 15.06401940104676
STARLINK-1716           
1 46672U 20073C   22254.17136892  .00001889  00000+0  14571-3 0  9995
2 46672  53.0559 207.6562 0001611  68.3184 291.7976 15.06387014105362
STARLINK-1717           
1 46673U 20073D   22253.42359417 -.00000211  00000+0  47366-5 0  9992
2 46673  53.0523 226.1177 0001537  75.9395 284.1765 15.06400928105033
STARLINK-1718           
1 46674U 20073E   22253.33465781  .00001468  00000+0  11740-3 0  9994
2 46674  53.0536 211.3984 0001369  69.7436 290.3700 15.06398241104750
STARLINK-1720           
1 46675U 20073F   22253.33097254 -.00000120  00000+0  10878-4 0  9998
2 46675  53.0538 211.4199 0001839  63.6800 296.4378 15.06402613104759
STARLINK-1766           
1 46677U 20073H   22254.18976606 -.00022396  00000+0 -14873-2 0  9998
2 46677  53.0538 207.5604 0001075  86.3949 273.7163 15.06451880105353
STARLINK-1773           
1 46679U 20073K   22254.19532861  .00000272  00000+0  37178-4 0  9994
2 46679  53.0533 187.5360 0001622  63.6071 296.5084 15.06395153105656
STARLINK-1774           
1 46680U 20073L   22253.33511716 -.00000567  00000+0 -19188-4 0  9997
2 46680  53.0531 226.4066 0001533  74.8168 285.2991 15.06402222104549
STARLINK-1775           
1 46681U 20073M   22254.16812366  .00001983  00000+0  15186-3 0  9999
2 46681  53.0545 222.6575 0001632  52.2706 307.8430 15.06428491105148
STARLINK-1776           
1 46682U 20073N   22254.19393840  .00001493  00000+0  11910-3 0  9991
2 46682  53.0552 222.5529 0001548  69.9657 290.1499 15.06405565105260
STARLINK-1780           
1 46684U 20073Q   22253.31991584 -.00000977  00000+0 -46733-4 0  9995
2 46684  53.0541 211.4742 0001272  86.6642 273.4492 15.06395588105235
STARLINK-1781           
1 46685U 20073R   22253.44106821 -.00001719  00000+0 -96550-4 0  9999
2 46685  53.0520 225.9039 0001437  76.0114 284.1035 15.06390819104550
STARLINK-1783           
1 46686U 20073S   22253.88337581 -.00000106  00000+0  11786-4 0  9993
2 46686  53.0547 223.8967 0001396  80.9506 279.1641 15.06393041104625
STARLINK-1784           
1 46687U 20073T   22253.27752727 -.00000310  00000+0 -18929-5 0  9995
2 46687  53.0542 191.6641 0001707  62.9763 297.1401 15.06400060105022
STARLINK-1788           
1 46689U 20073V   22253.70002838  .00000581  00000+0  57879-4 0  9990
2 46689  53.0528 224.7568 0001731  81.7275 278.3910 15.06401773105846
STARLINK-1789           
1 46690U 20073W   22254.16491416 -.00002913  00000+0 -17665-3 0  9998
2 46690  53.0562 197.6806 0001404  85.9542 274.1608 15.06411794105492
STARLINK-1790           
1 46691U 20073X   22254.09765568 -.00007386  00000+0 -47777-3 0  9999
2 46691  53.0532 207.9758 0001582  64.1280 295.9872 15.06375733105346
STARLINK-1791           
1 46692U 20073Y   22253.75163814 -.00000130  00000+0  10182-4 0  9998
2 46692  53.0540 224.5170 0001447 100.8952 259.2200 15.06398388104600
STARLINK-1792           
1 46693U 20073Z   22253.83594467  .00001194  00000+0  99018-4 0  9995
2 46693  53.0535 209.1633 0001425  70.3351 289.7791 15.06399373104820
STARLINK-1793           
1 46694U 20073AA  22254.19163108  .00002604  00000+0  19364-3 0  9992
2 46694  53.0528 187.5622 0001326  87.1885 272.9256 15.06403059105646
STARLINK-1795           
1 46696U 20073AC  22253.81198233  .00000224  00000+0  33931-4 0  9992
2 46696  53.0535 189.2649 0001644  69.3001 290.8164 15.06401657105109
STARLINK-1797           
1 46698U 20073AE  22253.86817207  .00001877  00000+0  14484-3 0  9994
2 46698  53.0535 208.9915 0001386  85.0240 275.0907 15.06400445104832
STARLINK-1799           
1 46699U 20073AF  22253.40837510  .00001060  00000+0  90046-4 0  9997
2 46699  53.0542 211.0724 0001617  81.3555 278.7617 15.06405592104767
STARLINK-1800           
1 46700U 20073AG  22253.34617516 -.00000766  00000+0 -32533-4 0  9996
2 46700  53.0539 226.3566 0001506  63.9492 296.1652 15.06400594104548
STARLINK-1801           
1 46701U 20073AH  22253.31254224 -.00000643  00000+0 -24266-4 0  9995
2 46701  53.0537 211.5102 0001562  75.5338 284.5824 15.06398083104753
STARLINK-1802           
1 46702U 20073AJ  22254.05525533 -.00000650  00000+0 -24732-4 0  9998
2 46702  53.0534 188.1708 0001544  56.8336 303.2801 15.06402106105625
STARLINK-1803           
1 46703U 20073AK  22254.15293806 -.00000715  00000+0 -29086-4 0  9994
2 46703  53.0544 207.7169 0001501  67.6272 292.4876 15.06398649105355
STARLINK-1804           
1 46704U 20073AL  22253.13746784 -.00000965  00000+0 -45880-4 0  9997
2 46704  53.0546 192.2908 0001388  64.4781 295.6351 15.06396217105004
STARLINK-1805           
1 46705U 20073AM  22253.34986540 -.00000557  00000+0 -18497-4 0  9998
2 46705  53.0547 226.3227 0001371  60.3159 299.7966 15.06397926104548
STARLINK-1807           
1 46706U 20073AN  22254.18610976 -.00000086  00000+0  13136-4 0  9990
2 46706  53.0545 207.5870 0001822  63.7595 296.3581 15.06401818105367
STARLINK-1808           
1 46707U 20073AP  22254.17689608  .00000590  00000+0  58517-4 0  9999
2 46707  53.0552 187.6264 0001556  66.4443 293.6709 15.06386171105655
STARLINK-1810           
1 46709U 20073AR  22253.72215828  .00001476  00000+0  11799-3 0  9994
2 46709  53.0545 224.7904 0001499  77.4220 282.6937 15.06402408104599
STARLINK-1811           
1 46710U 20073AS  22254.20499907  .00000305  00000+0  39376-4 0  9994
2 46710  53.0542 222.4985 0001490  67.4146 292.7001 15.06400824105156
STARLINK-1813           
1 46711U 20073AT  22253.24987930  .00000524  00000+0  54076-4 0  9993
2 46711  53.0524 211.7896 0001724  64.1962 295.9205 15.06399676104746
STARLINK-1814           
1 46712U 20073AU  22254.15663472 -.00000085  00000+0  13220-4 0  9996
2 46712  53.0561 207.8221 0001439  64.8978 295.2160 15.06404937105351
